[{"OBJECT_NAME":"GLOBAL-4","OBJECT_ID":"2019-054E","EPOCH":"2026-03-09T08:50:03.339744","MEAN_MOTION":15.55419748,"ECCENTRICITY":0.00055925,"INCLINATION":45.007,"RA_OF_ASC_NODE":88.4746,"ARG_OF_PERICENTER":7.6875,"MEAN_ANOMALY":352.4104,"EPHEMERIS_TYPE":0,"CLASSIFICATION_TYPE":"U","NORAD_CAT_ID":44499,"ELEMENT_SET_NO":999,"REV_AT_EPOCH":36477,"BSTAR":0.00061659402,"MEAN_MOTION_DOT":0.00042886,"MEAN_MOTION_DDOT":0},{"OBJECT_NAME":"STARLINK-1873","OBJECT_ID":"2020-088AN","EPOCH":"2026-03-09T22:04:30.038304","MEAN_MOTION":15.57021972,"ECCENTRICITY":0.00086271,"INCLINATION":53.0491,"RA_OF_ASC_NODE":267.739,"ARG_OF_PERICENTER":148.5172,"MEAN_ANOMALY":211.6357,"EPHEMERIS_TYPE":0,"CLASSIFICATION_TYPE":"U","NORAD_CAT_ID":47158,"ELEMENT_SET_NO":999,"REV_AT_EPOCH":29233,"BSTAR":0.00084582413,"MEAN_MOTION_DOT":0.00062301,"MEAN_MOTION_DDOT":0}]
